[{"OBJECT_NAME":"STARLINK-36766","OBJECT_ID":"2026-042A","EPOCH":"2026-03-27T18:38:53.026368","MEAN_MOTION":15.80995813,"ECCENTRICITY":0.0002297,"INCLINATION":53.1581,"RA_OF_ASC_NODE":104.1319,"ARG_OF_PERICENTER":80.6616,"MEAN_ANOMALY":279.4666,"EPHEMERIS_TYPE":0,"CLASSIFICATION_TYPE":"U","NORAD_CAT_ID":68069,"ELEMENT_SET_NO":999,"REV_AT_EPOCH":494,"BSTAR":0.0020635,"MEAN_MOTION_DOT":0.00429925,"MEAN_MOTION_DDOT":0},{"OBJECT_NAME":"STARLINK-36823","OBJECT_ID":"2026-042B","EPOCH":"2026-03-27T18:37:47.638848","MEAN_MOTION":15.81008648,"ECCENTRICITY":8.17e-5,"INCLINATION":53.1577,"RA_OF_ASC_NODE":104.1265,"ARG_OF_PERICENTER":82.2114,"MEAN_ANOMALY":277.9001,"EPHEMERIS_TYPE":0,"CLASSIFICATION_TYPE":"U","NORAD_CAT_ID":68070,"ELEMENT_SET_NO":999,"REV_AT_EPOCH":494,"BSTAR":0.0020492,"MEAN_MOTION_DOT":0.00427086,"MEAN_MOTION_DDOT":0},{"OBJECT_NAME":"STARLINK-36970","OBJECT_ID":"2026-042C","EPOCH":"2026-03-27T20:00:01.999008","MEAN_MOTION":15.75187898,"ECCENTRICITY":0.0001189,"INCLINATION":53.1599,"RA_OF_ASC_NODE":103.9322,"ARG_OF_PERICENTER":109.4658,"MEAN_ANOMALY":170.0685,"EPHEMERIS_TYPE":0,"CLASSIFICATION_TYPE":"U","NORAD_CAT_ID":68071,"ELEMENT_SET_NO":999,"REV_AT_EPOCH":496,"BSTAR":0.00063863,"MEAN_MOTION_DOT":0.00098177,"MEAN_MOTION_DDOT":0},{"OBJECT_NAME":"STARLINK-36972","OBJECT_ID":"2026-042D","EPOCH":"2026-03-27T18:36:43.320960","MEAN_MOTION":15.8103944,"ECCENTRICITY":0.0001843,"INCLINATION":53.1573,"RA_OF_ASC_NODE":104.1217,"ARG_OF_PERICENTER":72.5727,"MEAN_ANOMALY":287.5497,"EPHEMERIS_TYPE":0,"CLASSIFICATION_TYPE":"U","NORAD_CAT_ID":68072,"ELEMENT_SET_NO":999,"REV_AT_EPOCH":494,"BSTAR":0.0023442,"MEAN_MOTION_DOT":0.0049314,"MEAN_MOTION_DDOT":0},{"OBJECT_NAME":"STARLINK-37074","OBJECT_ID":"2026-042E","EPOCH":"2026-03-27T20:00:01.999008","MEAN_MOTION":15.76924339,"ECCENTRICITY":9.29e-5,"INCLINATION":53.1592,"RA_OF_ASC_NODE":103.8254,"ARG_OF_PERICENTER":100.9729,"MEAN_ANOMALY":230.6524,"EPHEMERIS_TYPE":0,"CLASSIFICATION_TYPE":"U","NORAD_CAT_ID":68073,"ELEMENT_SET_NO":999,"REV_AT_EPOCH":496,"BSTAR":-0.012423,"MEAN_MOTION_DOT":-0.01800522,"MEAN_MOTION_DDOT":0},{"OBJECT_NAME":"STARLINK-37045","OBJECT_ID":"2026-042F","EPOCH":"2026-03-27T11:31:55.293312","MEAN_MOTION":15.75302623,"ECCENTRICITY":0.000277,"INCLINATION":53.1596,"RA_OF_ASC_NODE":105.8489,"ARG_OF_PERICENTER":39.0243,"MEAN_ANOMALY":321.0976,"EPHEMERIS_TYPE":0,"CLASSIFICATION_TYPE":"U","NORAD_CAT_ID":68074,"ELEMENT_SET_NO":999,"REV_AT_EPOCH":489,"BSTAR":0.00047577,"MEAN_MOTION_DOT":0.00073136,"MEAN_MOTION_DDOT":0},{"OBJECT_NAME":"STARLINK-37026","OBJECT_ID":"2026-042G","EPOCH":"2026-03-27T17:50:54.819456","MEAN_MOTION":15.75319622,"ECCENTRICITY":0.0002411,"INCLINATION":53.1569,"RA_OF_ASC_NODE":104.6453,"ARG_OF_PERICENTER":77.666,"MEAN_ANOMALY":282.463,"EPHEMERIS_TYPE":0,"CLASSIFICATION_TYPE":"U","NORAD_CAT_ID":68075,"ELEMENT_SET_NO":999,"REV_AT_EPOCH":493,"BSTAR":0.0022171,"MEAN_MOTION_DOT":0.00355125,"MEAN_MOTION_DDOT":0},{"OBJECT_NAME":"STARLINK-37023","OBJECT_ID":"2026-042H","EPOCH":"2026-03-27T13:09:20.345760","MEAN_MOTION":15.75258096,"ECCENTRICITY":0.000157,"INCLINATION":53.1576,"RA_OF_ASC_NODE":105.5565,"ARG_OF_PERICENTER":133.5167,"MEAN_ANOMALY":226.5984,"EPHEMERIS_TYPE":0,"CLASSIFICATION_TYPE":"U","NORAD_CAT_ID":68076,"ELEMENT_SET_NO":999,"REV_AT_EPOCH":490,"BSTAR":0.001865,"MEAN_MOTION_DOT":0.00295703,"MEAN_MOTION_DDOT":0},{"OBJECT_NAME":"STARLINK-37036","OBJECT_ID":"2026-042J","EPOCH":"2026-03-27T11:38:27.099168","MEAN_MOTION":15.75262011,"ECCENTRICITY":0.0001116,"INCLINATION":53.1575,"RA_OF_ASC_NODE":105.8738,"ARG_OF_PERICENTER":70.7523,"MEAN_ANOMALY":289.3618,"EPHEMERIS_TYPE":0,"CLASSIFICATION_TYPE":"U","NORAD_CAT_ID":68077,"ELEMENT_SET_NO":999,"REV_AT_EPOCH":489,"BSTAR":0.00070954,"MEAN_MOTION_DOT":0.00109654,"MEAN_MOTION_DDOT":0},{"OBJECT_NAME":"STARLINK-36973","OBJECT_ID":"2026-042K","EPOCH":"2026-03-27T20:00:01.999008","MEAN_MOTION":15.75214464,"ECCENTRICITY":0.0001195,"INCLINATION":53.1594,"RA_OF_ASC_NODE":103.8256,"ARG_OF_PERICENTER":102.4462,"MEAN_ANOMALY":228.5894,"EPHEMERIS_TYPE":0,"CLASSIFICATION_TYPE":"U","NORAD_CAT_ID":68078,"ELEMENT_SET_NO":999,"REV_AT_EPOCH":496,"BSTAR":0.000219,"MEAN_MOTION_DOT":0.00033025,"MEAN_MOTION_DDOT":0},{"OBJECT_NAME":"STARLINK-37063","OBJECT_ID":"2026-042L","EPOCH":"2026-03-27T18:29:09.238848","MEAN_MOTION":15.80984808,"ECCENTRICITY":0.0001439,"INCLINATION":53.1571,"RA_OF_ASC_NODE":104.0858,"ARG_OF_PERICENTER":68.141,"MEAN_ANOMALY":291.9765,"EPHEMERIS_TYPE":0,"CLASSIFICATION_TYPE":"U","NORAD_CAT_ID":68079,"ELEMENT_SET_NO":999,"REV_AT_EPOCH":494,"BSTAR":0.0020282,"MEAN_MOTION_DOT":0.00421951,"MEAN_MOTION_DDOT":0},{"OBJECT_NAME":"STARLINK-37051","OBJECT_ID":"2026-042M","EPOCH":"2026-03-27T20:00:01.999008","MEAN_MOTION":15.75200229,"ECCENTRICITY":0.0001133,"INCLINATION":53.1596,"RA_OF_ASC_NODE":103.8785,"ARG_OF_PERICENTER":110.057,"MEAN_ANOMALY":195.2309,"EPHEMERIS_TYPE":0,"CLASSIFICATION_TYPE":"U","NORAD_CAT_ID":68080,"ELEMENT_SET_NO":999,"REV_AT_EPOCH":496,"BSTAR":0.0004314,"MEAN_MOTION_DOT":0.00065893,"MEAN_MOTION_DDOT":0},{"OBJECT_NAME":"STARLINK-37066","OBJECT_ID":"2026-042N","EPOCH":"2026-03-27T16:00:01.999584","MEAN_MOTION":15.7527172,"ECCENTRICITY":0.0001108,"INCLINATION":53.1592,"RA_OF_ASC_NODE":104.8635,"ARG_OF_PERICENTER":82.8853,"MEAN_ANOMALY":281.3066,"EPHEMERIS_TYPE":0,"CLASSIFICATION_TYPE":"U","NORAD_CAT_ID":68081,"ELEMENT_SET_NO":999,"REV_AT_EPOCH":494,"BSTAR":-0.00048039,"MEAN_MOTION_DOT":-0.00073743,"MEAN_MOTION_DDOT":0},{"OBJECT_NAME":"STARLINK-37054","OBJECT_ID":"2026-042P","EPOCH":"2026-03-27T10:49:38.862336","MEAN_MOTION":15.80917816,"ECCENTRICITY":0.0001857,"INCLINATION":53.1572,"RA_OF_ASC_NODE":105.6499,"ARG_OF_PERICENTER":110.0482,"MEAN_ANOMALY":250.074,"EPHEMERIS_TYPE":0,"CLASSIFICATION_TYPE":"U","NORAD_CAT_ID":68082,"ELEMENT_SET_NO":999,"REV_AT_EPOCH":489,"BSTAR":0.0010446,"MEAN_MOTION_DOT":0.00211021,"MEAN_MOTION_DDOT":0},{"OBJECT_NAME":"STARLINK-37065","OBJECT_ID":"2026-042Q","EPOCH":"2026-03-27T11:31:26.577408","MEAN_MOTION":15.75546988,"ECCENTRICITY":0.0001294,"INCLINATION":53.1585,"RA_OF_ASC_NODE":105.8417,"ARG_OF_PERICENTER":183.6169,"MEAN_ANOMALY":176.4842,"EPHEMERIS_TYPE":0,"CLASSIFICATION_TYPE":"U","NORAD_CAT_ID":68083,"ELEMENT_SET_NO":999,"REV_AT_EPOCH":489,"BSTAR":0.0022573,"MEAN_MOTION_DOT":0.00365638,"MEAN_MOTION_DDOT":0},{"OBJECT_NAME":"STARLINK-37037","OBJECT_ID":"2026-042R","EPOCH":"2026-03-27T20:00:01.999008","MEAN_MOTION":15.75188435,"ECCENTRICITY":0.0001218,"INCLINATION":53.1594,"RA_OF_ASC_NODE":103.8753,"ARG_OF_PERICENTER":101.2897,"MEAN_ANOMALY":205.8679,"EPHEMERIS_TYPE":0,"CLASSIFICATION_TYPE":"U","NORAD_CAT_ID":68084,"ELEMENT_SET_NO":999,"REV_AT_EPOCH":496,"BSTAR":0.00063434,"MEAN_MOTION_DOT":0.00097507,"MEAN_MOTION_DDOT":0},{"OBJECT_NAME":"STARLINK-37068","OBJECT_ID":"2026-042S","EPOCH":"2026-03-27T20:00:01.999008","MEAN_MOTION":15.76496617,"ECCENTRICITY":9.42e-5,"INCLINATION":53.1591,"RA_OF_ASC_NODE":103.7213,"ARG_OF_PERICENTER":96.8006,"MEAN_ANOMALY":284.9349,"EPHEMERIS_TYPE":0,"CLASSIFICATION_TYPE":"U","NORAD_CAT_ID":68085,"ELEMENT_SET_NO":999,"REV_AT_EPOCH":496,"BSTAR":-0.010785,"MEAN_MOTION_DOT":-0.01533108,"MEAN_MOTION_DDOT":0}]
